Address,house_number,house,road,neighbourhood,city_district,postcode,state,latitude,longitude,latitude g,longitude g
"Lot 3A- B NG -M01, Basement Ground Floor, Kompleks Bukit Jambul",Lot 3A,"Lot 3A- B NG -M01, Basement Ground Floor",,,,,,,,5.33391,100.28026
"Lot 31156, Persiaran S2 B7, Seremban 2",Lot 31156,"Lot 31156, Persiaran S2 B7",,,,,Seremban 2,,,4.80558,101.09608
"Lot 15, 16 & 17 DBKK, 
No B-6, B-7 & B-8 Blok B, 
Lorong Plaza Permai 1, Alamesra,
Sulaiman Coastal Highway, 88400 Kota Kinabalu.","Lot 15, 16 & 17 DBKK, 
No B-6, B-7 & B-8 Blok B, ","Lot 15, 16 & 17 DBKK, 
No B-6, B-7 & B-8 Blok B, ",Lorong Plaza Permai 1,,,88400,Kota Kinabalu,6.034028,116.131568,5.34341,100.45746
"59,Jalan Sri Bhagia,81250,Johor Bharu",59,,Jalan Sri Bahagia,,Johor Bharu,81250,,,,1.61144,103.66535
"18/G, Jalan Pinang G, 40200, Shah Alam",18/G,,Jalan Pinang G,,Shah Alam,40200,,3.045436,101.515923,3.22456,101.42492
"NO. 1, JALAN DATARAN MARVELANE , KLANG, SELANGOR, 41050",NO. 1,,JALAN DATARAN MARVELANE,, KLANG,41050,SELANGOR,3.072426,101.450345,3.11092,101.43912
"NO. 1 & 3, PERSIARAN SULTAN IBRAHIM, KLANG, SELANGOR, 41300.",NO. 1 & 3,, PERSIARAN SULTAN IBRAHIM,, KLANG,41300,SELANGOR,3.048864,101.452212,4.57664,101.10298
"134 & 136, JLN KAPAR, KLANG, SELANGOR, 41400",134 & 136,,JLN KAPAR,, KLANG,41400,SELANGOR,,,3.21754,101.62292
"Aeon Mall, Badar Dato'Onn Utama, Johor Bharu",,Aeon Mall,Bandar Dato' Onn Utama,,Johor Bharu,,,1.564308,103.735069,6.11677,102.24057
"Terminal KLIA, KL International Airport",,Terminal KLIA,KL International Airport,,,,,,,2.73061,101.72116
"NO. 2, JALAN APOLLO U5/191, SEKSYEN U5, BANDAR PINGGIRAN SUBANG, SHAH ALAM, SELANGOR, 40150.",NO. 2,,JALAN APOLLO U5/191,SEKSYEN U5,SHAH ALAM,40150,SELANGOR,,,3.15891,101.55116
"LOT G65 GROUND FLOOR,
6, JLN TMN SETIAWANGSA,
Kuala Lumpur,
Ampang,
54200, 
Malaysia",Lot G65 Ground Floor 6,"LOT G65 GROUND FLOOR, 6, JLN TMN SETIAWANGSA,",Jalan Taman Titiwangsa,,Kuala Lumpur,54200,,3.177393,101.750681,3.18107,101.74395
"NO. 24 - 26 JALAN 6/3A, TAMAN DESA CEMPAKA, DESA CEMPAKA, BANDAR BARU NILAI, NILAI, NEGERI SEMBILAN, 71800.",NO. 24 - 26,,JALAN 6/3A,"DESA CEMPAKA, BANDAR BARU NILAI",NILAI,71800,NEGERI SEMBILAN,,,5.27349,100.42999
"No. 318, JLN SUNGAI BESI, KUALA LUMPUR, 57100.",No. 318,,JLN SUNGAI BESI,,KUALA LUMPUR,57100,,,,3.08644,101.70972
"NO. 18 & 20, JALAN IJOK UTAMA 1, BESTARI JAYA, IJOK, SELANGOR, 45700",NO. 18 & 20,,JALAN IJOK UTAMA 1, BESTARI JAYA,IJOK,45700,SELANGOR,,,3.31477,101.40794
"NO. 21, JALAN 10/2, SEKSYEN 10 OFF JALAN BUKIT BANDAR KAJANG, KAJANG, SELANGOR, 43000",NO. 21,, JALAN 10/2,SEKSYEN 10 OFF JALAN BUKIT BANDAR KAJANG,KAJANG,43000,SELANGOR,,,3.051216,101.805317
"NO. 23, JALAN JENARIS 2A, TAMAN PERINDUSTRIAN SRI JENARIS, TAMAN PERINDUSTRIAN SRI JENARIS, KAJANG, SELANGOR, 43000.",NO. 23,,JALAN JENARIS 2A,"TAMAN PERINDUSTRIAN SRI JENARIS, TAMAN PERINDUSTRIAN SRI JENARIS", KAJANG,43000,SELANGOR,,,3.01083,101.80201
"67 JALAN BPS 4, BANDAR PRIMA SENAWANG, SEREMBAN, NEGERI SEMBILAN, 70450",67,,JALAN BPS 4,BANDAR PRIMA SENAWANG,SEREMBAN,70450,NEGERI SEMBILAN,,,2.70351,101.99101
"NO. 4966 & 4967 TAMAN PANTAI MAS, PORT DICKSON, NEGERI SEMBILAN, 71000",NO. 4966 & 4967,,,TAMAN PANTAI MAS,PORT DICKSON,71000,NEGERI SEMBILAN,,,2.55681,101.80691
"F50, F51, F52 , Aeon Bukit Indah , 81200 Bukit Indah , Johor Bharu","F50, F51 7 F52",Aeon Bukit Indah,,,Bukit Indah,81200,Johor Bharu,,,1.48184,103.65661
"LOT 14578 & 14579, JLN TRAS. TAMAN RAUB JAYA 3, RAUB, PAHANG, 27600",LOT 14578 & 14579,,JLN TRAS,TAMAN RAUB JAYA 3,RAUB,27600,PAHANG,,,3.080574,101.765596
"F1 & F2, Empire Shopping Gallery, Jalan SS16/1,47500 Subang Jaya",F1 & F2,Empire Shopping Gallery,Jalan SS16/1,,Subang Jaya,47500,,3.082211,101.582722,3.05519,101.55864
"Starhill Gallery Terrace 181, Jalan Bukit Bintang 55100 Kuala Lumpur",,Starhill Gallery Terrace 181,Jalan Bukit Bintang,,Kuala Lumpur,55100,,3.14785,101.713177,3.14616,101.71032
"C22, Concourse Level, Suria KLCC Kuala Lumpur Convention Center, 50088 Kuala Lumpur","C22, Concourse Level",Suria KLCC  Kuala Lumpur Convention Center,,,Kuala Lumpur,50088,,3.158624,101.712194,3.14776,101.69402
"Blok A dan B, Kompleks Islam Putrajaya, No.23, Jalan Tunku Abdul Rahman,, Presint 3, 62100 Putrajaya",Blok A dan B,"Kompleks Islam Putrajaya, No 23",Jalan Tunku Abdul Rahman,Presint 3,Putrajaya,62100,,2.917799,101.6813,4.33124,113.99828
"31st Floor, Menara Bank Islam,22, Jalan Perak, Kuala Lumpur, 50450 Kuala Lumpur, Wilayah Persekutuan Kuala Lumpur",31st Floor,Menara Bank Islam,"22, Jalan Perak",,Kuala Lumpur,50450,Wilayah Persekutuan Kuala Lumpur,3.153255,101.710683,3.08082,101.73241
"Lot No. Upper Ground Floor 06 & 07 No. 1, Jalan SS7/26A Kelana Jaya 47301 Petaling Jaya, Selangor",Lot No. Upper Ground Floor 06 & 07 No. 1,,Jalan SS7/26A Kelana Jaya,,Petaling Jaya,47301,Selangor,3.105027,101.596018,3.080717,101.765318
"163D-1-19 & 20, Gurney Paragon Persiaran Gurney, 10250 Penang",163D-1-19 & 20,,,,Gurney Paragon Persiaran Gurney,10250,Penang,,,5.43675,100.31218
"Lot No. G1.132 & G1.132A Ground Floor, Sunway Pyramid Shopping Mall No. 3, Jalan PJS 11/15, Bandar Sunway 46150 Petaling Jaya, Selangor",Lot No. G1.132 & G1.132A Ground Floor,Sunway Pyramid Shopping Mall No. 3,Jalan PJS 11/15,,Bandar Sunway,46150,Selangor,3.072689,101.606431,3.07245,101.60167
"Lantai 2,
Ibu Pejabat TH
201, Jalan Tun Razak
50732 KUALA LUMPUR",Lantai 2,Lembaga Tabung Haji,Jalan Tun Razak,,Kuala Lumpur,50732,,3.158642,101.719784,3.16189,101.71957
"26,27 & 28 Concourse 1 Sentral, Jalan Travers, KL Sentral 50470 Kuala Lumpur","26,27 & 28 Concourse 1 Sentral", KL Sentral,Jalan Travers,,Kuala Lumpur,50470,,3.133293,101.686881,3.13493,101.68547
"Jabatan Wakaf, Zakat & Haji (JAWHAR)
Aras 8-9, Blok D, Kompleks Islam Putrajaya (KIP),
Jalan Tun Abdul Razak, Presint 3,
62100 Putrajaya, Malaysia","Aras 8-9, Blok D","Jabatan Wakaf, Zakat & Haji (JAWHAR)
",Jalan Tun Abdul Razak,Presint 3,Putrajaya,62100,Putrajaya,2.917242,101.682756,2.923514,101.705304
"GF-135 &GF-135A, 100, Persiaran Bayan Indah, 11900 Bayan Lepas, Pulau Pinang","GF-135 &GF-135A, 100",,,Persiaran Bayan Indah,Bayan Lepas,11900,Pulau Pinang,5.333522,100.306373,5.32784,100.27337
"Bangunan Muzium TM
Jalan Raja Chulan
50200 Kuala Lumpur",,Bangunan Muzium TM,Jalan Raja Chulan,,Kuala Lumpur,50200,,,,3.30722,101.58764
"Komtar JBCC, Level Ground Floor, Lot G32 , Jalan Wong Ah Fook, 80000 Johor Bahru","Lot G32,Level Ground Floor",,Jalan Wong Ah Fook,, Johor Bahru,80000,,,,1.4589,103.765
"Lot G41,G42 & G43, Ground Floor, The Spring, Persiaran Spring, 93300 Kuching, Sarawak, Malaysia","Lot G41,G42 & G43","Ground Floor, The Spring",,Persiaran Spring,Kuching,93300,Sarawak,1.535491,", 110.358577",3.04502,101.74104
"TNB Klang, Jalan Meru , Peti Surat 2010, 41990 Klang, Selangor.",Peti Surat 2010,TNB Klang ,Jalan Meru,,Klang,41990,Selangor,,,3.5166,101.09687
"Wisma Low Kim Her, Kuala Lumpur, Wilayah Persekutuan , Malaysia",,Wisma Low Kim Her,,,Kuala Lumpur,,Wilayah Persekutuan,,,3.12886,101.68341
"Ground Floor, The Weld, Jln Raja Chulan Kuala Lumpur, Wilayah Persekutuan 50200, Malaysia",Ground Floor,The Weld,Jln Raja Chulan,,Kuala Lumpur,50200,Wilayah Persekutuan,3.129143,101.683734,3.30722,101.58764
"The Gardens L1-2 Lingkaran Syed Putra, 59200 Kuala Lumpur, Wilayah Perseketuan, Malaysia", L1-2 Lingkaran Syed Putra,The Gardens,,,Kuala Lumpur,59200,Wilayah Perseketuan,3.118853,101.67604,3.12031,101.68552
"G3&G4 Ground Floor 156, Jalan Ampang 50450 Kuala Lumpur",G3&G4, Ground Floor 156,Jalan Ampang,,Kuala Lumpur,50450,,3.159171,101.713607,3.15279,101.69981
"Jalan Pantai Baharu
59990 Kuala Lumpur",,Syabas Office,Jalan Pantai Baharu,,Kuala Lumpur,59990,Wilayah Perseketuan,,,3.14776,101.69402
"Lot G-3A, Ground Floor, IOI CITY MALL, IOI Resort, 62502 Putrajaya, Malaysia",Lot G-3A,Ground Floor,IOI Resort,,Putrajaya,62502,,2.969725,101.71444,2.941582,101.653785
"24-26, Jalan Harimau Tarum, Taman Century, 80250 Johor Bahru, Johor",24-26,,Jalan Harimau Tarum,Taman Century,Johor Bharu,80250,Johor,"1.480178,",103.763963,1.48611,103.76006
"Lot G29-G31 Imago Mall, Off Coastal Highway, 88100 KK, Sabah",Lot G29-G31,Imago Mall,Off Coastal Highway,,Kota Kinabalu,88100,Sabah,5.969736,116.066521,2.05029,103.33848
"Lot G - 082 Ground Floor, Lingkaran Syed Putra, Kuala Lumpur, Selangor 59200 Malaysia",Lot G - 082,Ground Floor,Lingkaran Syed Putra,,Kuala Lumpur,59200,Selangor,,,3.028719,101.779869
"Aras 6, Blok B2 
Kompleks Jabatan Perdana Menteri 
Pusat Pentadbiran Kerajaan Persekutuan 
62502 Putrajaya Malaysia","Aras 6, Blok B2",Pusat Pentadbiran Kerajaan Persekutuan,,Kompleks Jabatan Perdana Menteri,Putrajaya,62502,,,,2.941582,101.653785
"Lot G19B, Ground Floor, AEON MALL Tebrau City, No 1, Jalan Desa Tebrau, Taman Desa Tebrau, 81100, Johor Bahru, Johor",No 1,"lot G19B, Ground Floor, AEON MALL Tebrau City",Jalan Desa Tebrau,Taman Desa Tebrau,Johor Bahru,81100,Johor,,,1.46367,103.77194
"No. 5,Persiaran Perdana, Presint 2 , Pusat Pentadbiran Kerajaan Persekutuan ,62592 Wilayah Perseketuan Putrajaya .",No. 5,Pusat Pentadbiran Kerajaan Persekutuan,Persiaran Perdana,Presint 2,Putrajaya,62592,Wilayah Perseketuan,,,4.52324,101.07419
"Lot G139C, Ground Floor, 1 Utama Shopping Centre, 1, Lebuh Bandar Utama, Bandar Utama City Centre, Bandar Utama, 47800 Petaling Jaya, Selangor",Lot G139C,"Ground Floor, 1 Utama Shopping Centre"," 1,Lebuh Bandar Utama","Bandar Utama City Centre, Bandar Utama",Petaling Jaya,47800,Selangor,,,3.08137,101.64668
"2 Jln Tambunan-ranau Kampung Pomotodon, Sabah 89657, Malaysia",2,,Jalan Tambunan-ranau Kampung Promotodon,,,89657,Sabah,,,6.15588,100.37052
"AEON Mall Shah Alam, G023 No. 1, Jalan Akuatik 13/64, Seksyen 13, 40100 Shah Alam, Selangor Darul Ehsan",G023 No. 1,AEON Mall Shah Alam, Jalan Akuatik 13/64,Seksyen 13,Shah Alam,40100,Selangor,3.075997,101.548327,3.07676,101.54268
"Genting Highlands Resort, Lot No. T2A-49 & 50, Level T2A, Sky Avenue, Genting Highlands, 69000 Genting Highlands, Pahang",Lot No. T2A-49 & 50,Genting Highlands Resort,, Sky Avenue,Genting Highlands,69000,Pahang,3.423978,101.793072,3.46536,101.66068
"No. 35, Jln Sb Indah 1/2A Taman Sungai Besi Indah Seri Kembangan, Selangor 43300, Malaysia",No. 35,,Jln Sb Indah 1/2A,Taman Sungai Besi Indah,Seri Kembangan,43300,Selangor,,,3.027198,101.724674
"1st Floor, Mid Valley Megamall, Psn Mid Valley Mid Valley City Kuala Lumpur, Wilayah Persekutuan 58000, Malaysia",1st Floor,Mid Valley Megamall,Psn Mid Valley Mid Valley City,,Kuala Lumpur,58000,Wilayah Persekutuan,3.117857,101.677378,3.11799,101.6766
"IFiC KL Sentral
Aras Bawah & Aras 1, 
Bllok D, Plaza Sentral,
Menara TH Sentral,
Jalan Stesen Sentral 5,
Kuala Lumpur Sentral
50470 KUALA LUMPUR",Aras Bawah & Aras 1,"Bllok D, Plaza Sentral,
Menara TH Sentral",Jalan Stesen Sentral 5,,Kuala Lumpur ,50470,,,,3.13533,101.68649
"Lantai 2,
Ibu Pejabat TH
201, Jalan Tun Razak
50732 KUALA LUMPUR",201,"Lantai 2,
Ibu Pejabat TH", Jalan Tun Razak,,Kuala Lumpur ,50732,,,,3.16189,101.71957
"Kompleks Islam Putrajaya, 
Blok B,
Jalan Tunku Abdul Rahman, 
Presint 3,
Pusat Pentadbiran Kerajaan Persekutuan
62100 PUTRAJAYA",,"Kompleks Islam Putrajaya, 
Blok B,",Jalan Tunku Abdul Rahman,Presint 3,PUTRAJAYA,62100,,,,2.923514,101.705304
"Tingkat M, Bangunan TH
Lot 3500 
Jalan Bunga Kesuma
Peti Surat 81607
87026 LABUAN",Lot 3500 ,"Tingkat M, Bangunan TH",Jalan Bunga Kesuma,,LABUAN,87026,,,,2.28112,102.26061
"3,Jalan Baiduri 10/D,Taman Intan Baiduri, 68100 Selayang,Selangor",3,,Jalan Baiduri 10/D,Taman Intan Baiduri,"
Selayang",68100,Selangor,,,3.23434,101.64782
"Telekom Sales & Services Sdn Bhd 
Level 38, North Wing, Menara TM
Jalan Pantai Baru
50672 Kuala Lumpur
Malaysia",,"Level 38, North Wing, Menara TM",Jalan Pantai Baru,,Kuala Lumpur,50672,,,,3.14445,101.70961
"Unit No. 3-55, Level 3, Quill City Mall, Lot 1018, Jalan Sultan Ismail, 52520 Kuala Lumpur","Unit No. 3-55, Lot 1018"," Level 3, Quill City Mall",Jalan Sultan Ismail,,Kuala Lumpur,52520,,,,3.19542,101.64908
"Ibusawat TM Setapak
44, Persiaran Kuantan
53200 Kuala Lumpur",44,Ibusawat TM Setapak,,Persiaran Kuantan,Kuala Lumpur,53200,,,,3.14776,101.69402
"Tkt Bawah, Menara TM
Jalan Pantai Bharu
50672 Kuala Lumpur",Tkt Bawah,Menara TM,Jalan Pantai Bharu,,Kuala Lumpur,50672,,,,3.30722,101.58764
"L1/O2, Tingkat Bawah
Menara Maxisegar, Jalan Pandan Indah 4/2
Pandan Indah,55100 Kuala Lumpur","L1/O2, Tingkat Bawah",Menara Maxisegar,Jalan Pandan Indah,Pandan Indah,Kuala Lumpur,55100,,,,3.13252,101.75331
"Tkt Bawah, Wisma TM Taman Desa
Jalan Desa Utama
58100 Kuala Lumpur",Tkt Bawah,Wisma TM Taman Desa,Jalan Desa Utama,,Kuala Lumpur,58100,,,,3.10857,101.68711
"No 67, Jalan Metro Perdana Barat 1 
Taman Usahawan Kepong Utara 
52100 Kepong, Kuala Lumpur",No 67,,Jalan Metro Perdana Barat 1,Taman Usahawan Kepong Utara,Kepong,52100,,,,3.21468,101.63917
"B-4-5,5th Floor Northpoint Offices,Mdn Syed Put Mid Valley City ,59200 Kuala Lumpur,Wilayah Persekutuan","B-4-5,5th Floor",Northpoint Offices,Mdn Syed Put Mid Valley City,,"
Kuala Lumpur",59200,Wilayah Persekutuan,3.120341,101.677981,3.11995,101.6775
"Ibu Pejabat Lembaga Hasil Dalam Negeri,Persiaran Rimba Permai,Cyber 8,63000 Cyberjaya,Selangor",,Ibu Pejabat Lembaga Hasil Dalam Negeri,,Persiaran Rimba Permai ,Cyber 8,63000,Selangor,,,3.13908,101.69632
"Unit D2 179-3rd Floor, Jalan Bukit Bintang, Bukit Bintang , 55100 Kuala Lumpur ,Wilayah Persekutuan",179 -3rd Floor,,Jalan Bukit Bintang,Bukit Bintang,Kuala Lumpur,55100,Wilayah Persekutuan,,,3.14616,101.71032
"No. 60-1 (1st Floor), Jalan PJU 5/20,, The Strand Kota Damansara,, The Strand, 47810 Petaling Jaya, Selangor",60-1-1st Floor,The Strand,Jalan Pju 5/20,The Strand Kota Damansara,Petaling Jaya,47810,Selangor,,,3.1541,101.59127
"No. 325 -1st Floor, Jalan Mahkota , Taman Maluri , 55100 Kuala Lumpur , Wilayah Persekutuan",No. 325 -1st Floor,,Jalan Mahkota,Taman Maluri,Kuala Lumpur,55100,Wilayah Persekutuan,,,3.12777,101.73264
"No. 7 , Jalan Ss7/6b , Kelana Jaya, 47301 Petaling Jaya , Selangor",No. 7,,Jalan Ss7/6b,Kelana Jaya,Petaling Jaya,47301,Selangor,,,2.92711,101.85091
"No. 346A-Blok C , Lorong Kedah , Taman Melawati , Kuala Lumpur , Wilayah Persekutuan",No. 346A-Blok C,,Lorong Kedah,Taman Melawati,Kuala Lumpur,53100,Wilayah Persekutuan,,,3.06576,101.4494
"Pengurus Kawasan (Petaling Jaya), Bahagian Pembahagian Tenaga
Nasional Berhad, 72, Jln. Selangor, 46990 Petaling Jaya, Selangor. 
",72,"Bahagian Pembahagian Tenaga
Nasional Berhad",Jln. Selangor,,Petaling Jaya,46990,Selangor,,,3.10349,101.64819
"8I, Ground Floor, Psn Brooke Sibu, Sarawak 96000, Malaysia",81,"8I, Ground Floor",Psn Brooke Sibu,,Sibu,96000,Sarawak,,,2.31029,111.88731
"TNB Subang Jaya, Subang Square, East Wing E-01-0, Jalan SS 15/4G, 47500
Subang Jaya, Selangor. ",East Wing E-01-0,Subang Square,Jalan SS 15/4G,,Subang Jaya,47500,Selangor,,,3.07927,101.5895
"No. 9, Jln Mutiara 4 Taman Mutiara Kuala Lumpur, Wilayah Persekutuan 56000, Malaysia",No. 9,,Jln Mutiara 4,Taman Mutiara,Kuala Lumpur,56000,Wilayah Persekutuan,,,1.49302,103.43508
"TNB Bangi, Lot 1, Jalan 6C/13, Bandar Baru Bangi, 43650 Selangor.",Lot 1,,Jalan 6C/13,Bandar Baru Bangi,,43650,Selangor,,,3.019673,101.767415
"TNB Shah Alam, Persiaran Damai, Seksyen 11, 40702 Shah Alam, Selangor. ",,,,"Persiaran Damai, Seksyen 11",Shah Alam,40702,Selangor,,,5.51628,100.48748
"Pengurus Kawasan (Cheras), Bah. Pembahagian Tenaga Nasional Berhad,
No 13, Jln. Suarasa 8/3, Bandar Tun Hussien Onn, 46990 Cheras, Selangor.",No. 13,,Jln Suarasa 8/3,Bandar Tun Hussein Onn,Cheras,46990,Selangor,,,3.046243,101.75858
"TNB Banting Lot 4 Jalan Bunga Pekan 42700 Banting Selangor.
",Lot 4,,Jalan Bunga Pekan,,Banting,42700,Selangor,,,2.8135,101.50633
"Aras Bawah, Lebuh Batu Nilam 1,Bandar Bukit Tinggi, Selangor.",,Aras Bawah,Lebuh Batu Nilam 1,Bandar Bukit Tinggi,,,Selangor,,,3.00987,101.42816
"Pengurus Cawangan (sungai Besar), Lot 4744 & 4745, Jalan Sungai Limau,
45300 Sungai Besar, Selangor Darul Ehsan.",Lot 4744 & 4745,,Jalan Sungai Limau,,Sungai Besar,45300,Selangor,,,3.118328,101.857298
"Pengurus Kawasan (Kuala Selangor), No 19 Jalan Raja Idris, 45000 Kuala
Selangor, Selangor. 
",No 19,,Jalan Raja Idris,,Kuala Selangor,45000,Selangor,,,3.32751,101.25302
"No. 2 Jalan 2, Medan 120, Bandar Baru Salak Tinggi, 43900 Sepang,
Selangor. ",No 2,,"Jalan 2, Medan 120",Bandar Baru Salak TInggi,Sepang,43900,Selangor,,,2.81307,101.74002
"TNB, Jalan Besar, 43000 Kajang. ",,,Jalan Besar,,Kajang,43000,,,,3.05333,101.802045
"7th Floor, Bangunan Syed Kechik, Jln Kapas Bukit Bandaraya Kuala Lumpur, Wilayah Persekutuan 59100, Malaysia",7th Floor,Bangunan Syed Kechik,Jalan Kapas Bukit Bandaraya,,Kuala Lumpur,59100,Wilayah Persekutuan,,,3.14039,101.66154
"Pejabat Pengurus Kawasan (KL-Barat), Tingkat G, Wisma TNB, Jalan
Kepong, Peti Surat 11031, 50732 Kuala Lumpur. ",Peti Surat 11031,"Pejabat Pengurus Kawasan (KL-Barat), Tingkat G",Jalan Kepong,Wisma TNB,Kuala Lumpur,50732,,,,3.14776,101.69402
"TNB KL Timur, 247 & 248, Jalan Bandar 13, Taman Melawati, 53100 Kuala
Lumpur. ",247 & 248,TNB KL Timur,Jalan Bandar 13,Taman Melawati,Kuala Lumpur,53100,,,,3.22759,101.74506
"TNB Kuala Lumpur Pusat, Pusat Khidmat Pelanggan (PKP) TNB UTC PUDU
SENTRAL, Aras 3, Pudu Sentral, 55100, Kuala Lumpur",Aras 3,"Pusat Khidmat Pelanggan (PKP) TNB UTC PUDU
SENTRAL",,,Kuala Lumpur,55100,,,,3.13533,101.68649
"TNB Kuala Lumpur Pusat, Aras Bawah, Banguna Dua Sentral, No. 8, Jln Tun
Sambathan, 50470 Brickfields, Kuala Lumpur",No.8,"TNB Kuala Lumpur Pusat, Aras Bawah, Banguna Dua Sentral",Jln Tun Sambathan,,Kuala Lumpur,50470,,,,3.12803,101.68158
"Pejabat Pengurus Kawasan (KL-Selatan), No 2 Jln 1/137C Bedford Business
Park, 58200 Kuala Lumpur. ",No 2,Pejabat Pengurus Kawasan (KL-Selatan),"Jln 1/137C Bedford Business
Park",,Kuala Lumpur,58200,,,,3.08665,101.66999
"TNB Kampar, Pejabat Pengurus Kawasan Kampar, Jalan Timah, Taman
Bandar Baru, 31900 Kampar, Perak.",,"TNB Kampar, Pejabat Pengurus Kawasan Kampar",Jalan Timah,Taman Bandar Baru,,31900,Perak,,,4.31969,101.13932
"TNB Seberang Perai, Pengurus Kawasan (Seberang Jaya), Wisma TNB,
3031, Jln Tenaga, Seberang Jaya, 13700 Perai, Pulau Pinang.
",3031,"TNB Seberang Perai, Pengurus Kawasan (Seberang Jaya)",Jln Tenaga, Seberang Jaya,Perai,13700,Pulau Pinang,,,2.68401,101.94871
"TNB Pulau Pinang, Tingkat 2, Wisma TNB, No.30, Jalan Anson, 10400 Pulau
Pinang.
",No.30,"TNB Pulau Pinang, Tingkat 2, Wisma TNB",Jalan Anson,,,10400,"Pulau
Pinang",,,5.41634,100.32101
"Pengurus Cawangan (Bayan Baru), Bahagian Pembahagian TNB, No 64, Off
Jalan Mahsuri, 11900 Bayan Baru, Pulau Pinang.
",No 64,"Pengurus Cawangan (Bayan Baru), Bahagian Pembahagian TNB",Off Jalan Mahsuri,,Bayan Baru,11900,Pulau Pinang,,,5.41924,100.34057
"Bulatan Jubli Emas, 01000 Kangar, Perlis.",,,Bulatan Jubli Emas,,Kangar,1000,Perlis,,,6.43764,100.19349
"PT 7444 (Kompleks 18) Jalan BBN 1/2H, Bandar Baru Nilai,71800 Negeri
Sembilan Darul Khusus.
",PT 7444 (Kompleks 18),Jalan BBN 1/2H,Bandar Baru Nilai,,,71800,"Negeri
Sembilan",,,2.81329,101.79353
"Jalan Putra, 09000 Kulim, Kedah.",,,Jalan Putra,,Kulim,9000,Kedah,,,5.37052,100.54497
"Pengurus Kawasan (Temerloh) Bahagian Pembahagian Tenaga Nasional
Berhad, No. 40A, Jalan Tengku Ismail, 28000 Temerloh, Pahang Darul
Makmur.",No. 40A,"Pengurus Kawasan (Temerloh) Bahagian Pembahagian Tenaga Nasional
Berhad",Jalan Tengku Ismail,,Temerloh,28000,Pahang,,,3.058912,101.771392
"TNB Kota Bharu, Aras 2, Wisma TNB, Jalan Tok Hakim, 15000 Kota
Bharu,Kelantan.",,"TNB Kota Bharu, Aras 2, Wisma TNB", Jalan Tok Hakim,,Kota Bharu,15000,Kelantan,,,4.58451,101.08437
"Jln 8/101 Taman Rajawali Kuala Lumpur, Wilayah Persekutuan 56100, Malaysia",,,Jalan 8/101,Taman Rajawali,Kuala Lumpur,56100,Wilayah Persekutuan,,,3.10401,101.75012
"Jalan pantai bahru, menara tm Bangsar, Wilayah Persekutuan , Malaysia",,,Jalan pantai bahru,menara tm,Bangsar,,Wilayah Persekutuan,,,2.26912,102.2904
"Cova Square, Jln Teknologi PJU5 Kota Damansara Petaling Jaya, Selangor 47810, Malaysia",,Cova Square,Jln Teknologi PJU5,Kota Damansara,Petaling Jaya,47810,Selangor ,,,3.16529,101.57525
"No. 42, Jln 11/116b Kuchai Intrepreneur Park Kuala Lumpur, Wilayah Persekutuan 58200, Malaysia",No. 42,,Jln 11/116b Kuchai Intrepreneur Park,,Kuala Lumpur,58200,Wilayah Persekutuan,,,3.08561,101.69001
"6, Jalan Apollo U5/191,Bandar Pinggiran Subang, Seksyen U5 Shah Alam, Selangor 40150, Malaysia",6,,Jalan Apollo U5/191,"Bandar Pinggiran Subang, Seksyen U5",Shah Alam,40150,Selangor,,,3.15891,101.55116
"No. 603, 6th Floor, Majestic Square, Jln Othman, Seksyen 3, Petaling Jaya, Selangor 46000, Malaysia","No. 603, 6th Floor",Majestic Square,Jln Othman,Seksyen 3,Petaling Jaya,46000,Selangor,,,3.08639,101.64974
"Jln Selat Selatan 21 Sobena Jaya Industrial Park Pendamaran Klang, Selangor 42000, Malaysia",,,Jln Selat Selatan 21,Sobena Jaya Industrial Park Pendamaran,"Klang,",42000, Selangor,,,3.00598,101.42086
"Block G, Jln 3/101c Cheras Business Centre Cheras, Selangor 56100, Malaysia",Block G,,Jln 3/101c Cheras Business Centre,,Cheras,56100,Selangor,,,6.15525,100.37191
"5A, Jln Sg Keranji Q32/q Kemuning Greenvill Seksyen 32 Shah Alam, Selangor 40460, Malaysia",5A,, Jln Sg Keranji Q32/q Kemuning Greenvill ,Seksyen 32 , Shah Alam,40460,Selangor,,,2.97935,101.53305
"PT13698, 1st Floor, Taman Cukai Utama 24000, Malaysia","PT13698,, 1st Floor",,,Taman Cukai Utama,,24000,,,,6.15525,100.37191
"K4, Taman Jadi Tanjung Gemok Bandar Chanis, Pahang 26820, Malaysia",K4,,,Taman Jadi Tanjung Gemok Bandar Chanis,,26820,Pahang,,,3.19823,101.67907
"Blok E, Jln 18/14 Taman Sri Serdang Seri Kembangan, Selangor 43300, Malaysia",Blok E,,Jln 18/14 ,Taman Sri Serdang ,Seri Kembangan,43300,Selangor,,,3.029739,101.715931
"TNB Teluk Intan, Bahagian Pembahagian TNB, Jalan Changkat Jong, 36000
Teluk Intan",,"TNB Teluk Intan, Bahagian Pembahagian TNB",Jalan Changkat Jong,,Teluk Intan,36000,,,,5.43982,100.38069
"Jln Sulaimani, 24000 Chukai, Kemaman, Terengganu.",,,Jln Sulaiman,Chukai,Kemaman,24000,Terengganu,,,4.23268,103.42561
"TNB Batu Pahat, Jalan Bakau Chondong, 83000 Batu Pahat, Johor.",,TNB Batu Pahat ,Jalan Bakau Chodong,,Batu Pahat,83000,Johor,,,1.87177,102.9489
"TNB Kuala Terengganu, Jalan Banggol, 20100 Kuala Terengganu,
Terengganu.",,TNB Kuala Terengganu,Jalan Banggol,,Kuala Terengganu,20100,Terengganu,,,5.40987,100.30944
"TNB Rawang, Peti Surat 211, Jalan Maxwell, 48000 Rawang, Selangor",Peti Surat 211,TNB Rawang ,Jalan Maxwell,,Rawang,48000,Selangor,,,3.28204,101.47948
"TNB Muar, Jalan Sulaiman, 84000 Muar, Johor.",,TNB Muar,Jalan Sulaiman,,Muar,84000,Johor,,,2.03808,102.5724
"TNB Kulaijaya, Lot 6610 Bt.181/4 Jalan Senai-Kulai, 81000 Kulaijaya, Johor.",Lot 6610 Bt. 181/4,TNB Kulaijaya,Jalan Senai-Kulai,,Kulaijaya,81000,Johor,,,2.03808,102.5724
"TNB Sungai Petani, 23, Jalan Petri, 08000, Sungai Petani, Kedah.",,TNB Sungai Petani,Jalan Petri,,Sungai Petani,8000,Kedah,,,5.6896,100.49254
"TNB Alor Setar, No. 889, Wisma TNB, Jln Sultan Badlishah, 05990 Alor
Setar, Kedah.",No. 889,"TNB Alor Setar, Wisma TNB",Jln Sultan Badlishah,,Alor Setar,5990,Kedah,,,6.12377,100.37084
"TNB Melaka, PKP Banda Kaba,Aras G, Jalan Banda Kaba, 75990 Melaka",,"TNB Melak, PKP Banda Kaba, Aras G",Jalan Banda Kaba,,,75990,Melaka,,,2.19289,102.25292
"TNB Kluang, Jalan Mengkibol, 86009 Kluang, Johor.",,TNB Kluang,Jalan Mengkibol,,Kluang,86009,Johor,,,2.01032,103.32152
"TNB Ipoh, Pejabat Pengurus Kawasan Ipoh, Jalan Lahat, 30200 Ipoh,
Selangor",,"TNB Ipoh, Pejabat Pengurus Kawasan Ipoh",Jalan Lahat,,Ipoh,30200,Perak,,,3.93239,101.25099
"TNB Seremban, Tkt 1, Wisma TNB, Jalan Dato Bandar Tunggal, 70000
Seremban.",,"TNB Seremban, Tkt 1, Wisma TNB", Jalan Dato Bandar Tunggal,,Seremban,70000,Negeri Sembilan,,,2.72361,101.93933
"TNB Johor Jaya,79-81, Jln Molek 3/10, Tmn Molek, 81100 Johor Bahru",79-81,TNB Johor Jaya,Jln Molek 3/10,Tmn Molek,Johor Bahru,81100,Johor,,,1.52247,103.78596
"TNB UTC Melaka, PKP UTC Melaka, Lot 3-03, Wisma UTC, Jalan Tan Chay
Yan, Off Jln Hang Tuah, 75300 Melaka", Lot 3-03,"TNB UTC Melaka, PKP UTC Melaka","Jalan Tan Chay
Yan",Off Jln Hang Tuah,,75300,Melaka,,,2.20096,102.24524
"TNB Taiping, Pejabat Pengurus Kawasan (Taiping), 20, Jalan Istana Larut,
34000 Taiping, Perak.
",20,"TNB Taiping, Pejabat Pengurus Kawasan (Taiping)",Jalan Istana Larut,,Taiping,34000,Perak,,,4.8486,100.7323
"TNB Johor Bharu, Bahagian Pembahagian TNB, Tingkat 3, Wisma TNB,
Jalan Yahya Awal, Johor Bahru, Johor",,"TNB Johor Bharu, Bahagian Pembahagian TNB, Tingkat 3, Wisma TNB",Jalan Yahya Awal,,Johor Bahru,,Johor,,,1.46622,103.75301
"TNB, Wisma TNB, Lot 14, Seksyen 19, Jalan Gambut, 25000 Kuantan.", Lot 14,"TNB, Wisma TNB",,Seksyen 19,Kuantan,25000,Kuantan,,,3.8086,103.3253
"No.10, Ground Floor, Galleria PJH, Persiaran Perdana, Precint 4, 62100
W.P. Putrajaya.",No. 10,,"Ground Floor, Galleria PJH, Persiaran Perdana",Precint 4,Putrajaya,62100,Wilayah Persekutuan,,,2.923708,101.705922
"No.28 Kip Ent Park Bt7 , Jalan Metro Perdana Timur 8 ,Jalan Kecong , 52100 Kuala Lumpur , Wilayah Persekutuan",No.28,Kip Ent Park Bt7,"Jalan Metro Perdana Timur 8 , Jalan Kecong ",,Kuala Lumpur,52100,Wilayah Persekutuan,,,3.21638,101.64682
"K9612, GF, Taman Cukai Utama 24000, Malaysia",K9612,,,Taman Cukai Utama,,24000,,,,6.15525,100.37191
"No. 6, Ground Floor, Jln Jubli Mutiara Sarikei, Sarawak 96100, Malaysia","No. 6, Ground Floor",,Jln Jubli Mutiara Sarikei,,,96100,Sarawak,,,3.07089,101.5555
"No. 24, Psn 118C Desa Tun Razak Kuala Lumpur, Wilayah Persekutuan 56000, Malaysia",No. 24 Psn 118C ,Desa Tun Razak ,,,Kuala Lumpur,56000,Wilayah Persekutuan ,,,3.16181,101.71962
"G17, Ground Floor, Blok G Medan Warisan, Lrg Seri Kuantan, Pahang 25100, Malaysia","G17, Ground Floor, Blok G",Medan Warisan,Lorong Seri Kuantan,,,25100,Pahang,,,6.10727,100.34538
"53-1, Lagoon Business Centre, Jalan PJS 9/1A, Bandar Sunway Subang Jaya, Selangor 47500, Malaysia",53-1,Lagoon Business Centre,Jalan PJS 9/1A,Bandar Sunway,Subang Jaya,47500,Selangor,,,3.053398,101.788109
"B-5-8, Plaza Mont Kiara,  Plaza Mont Kiara Kuala Lumpur, Wilayah Persekutuan 50480, Malaysia",B-5-8,Plaza Mont Kiara,,Plaza Mont Kiara,Kuala Lumpur,50480,Wilayah Persekutuan ,,,3.16555,101.65227
"Menara AIA, 99 Jalan Ampang, 50450 Kuala Lumpur",99,Menara AIA,Jalan Ampang,,Kuala Lumpur,50450,,,,3.15279,101.69981
"JKG Tower Sdn Bhd
Management Office
1st floor, Menara JKG
No. 282, Jalan Raja Laut
50350 Kuala Lumpur",No. 282,"1st floor, Menara JKG",Jalan Raja Laut,,Kuala Lumpur,50350,,,,1.68595,103.53023
"Uppercase Sdn Bhd
No. 29-7 Jalan Riong
Bangsar
59100 Kuala Lumpur",No. 29-7 ,,Jalan Riong,,Kuala Lumpur,59100,,,,3.12835,101.67749
"Cowrk Sdn Bhd
8, Lengkok Abdullah
Bangsar
59100 Kuala Lumpur",8,,Lengkok Abdullah,,Kuala Lumpur,59100,,,,3.11601,101.66401
"Common Ground Works Sdn Bhd
Suite 16-1, Level 16
Wisma UOA Damansara II
No. 6, Changkat Semantan
Damansara Heights
50490 Kuala Lumpur",No. 6,"Suite 16-1, Level 16
Wisma UOA Damansara II",,"Changkat Semantan
Damansara Heights",Kuala Lumpur,50490,,,,3.15145,101.6657
"Incompleteness Theorem Sdn. Bhd.
Unit 3A-01A, Level 3A
Glo Damansara
No. 699, Jalan Damansara
60000 Kuala Lumpur",No.699,"Unit 3A-01A, Level 3A
Glo Damansara",Jalan Damansara,,Kuala Lumpur,60000,,,,4.65102,101.1052
"Sunway PFM Sdn Bhd
Level 1, Menara Sunway
Jalan Lagoon Timur
Bandar Sunway
47500 Subang Jaya
Selangor",,"Level 1, Menara Sunway",Jalan Lagoon Timur,Bandar Sunway,Subang Jaya,47500,Selangor,,,3.06942,101.55884
"Putrajaya Holdings Sdn. Bhd.
No. 2, Jalan Tun Abdul Razak
Precinct 2
62100 Putrajaya",No. 2,,Jalan Tun Abdul Razak,Precinct 2,Putrajaya,62100,,,,2.922508,101.683255
"Technology Park Malaysia Corporation Sdn Bhd
Level 5, Enterprise 4
Lebuhraya Puchong - Sg.Besi,
Bukit Jalil
57000 Kuala Lumpur",,"Technology Park Malaysia
Level 5, Enterprise 4",Lebuhraya Puchong - Sg. Besi,Bukit Jalil,Kuala Lumpur,57000,,,,3.04829,101.6884
"KLCC (Holdings) Sdn. Bhd.
Level 54, Tower 2
PETRONAS Twin Towers
50088 Kuala Lumpur City Centre
Kuala Lumpur",,"KLCC
Level 54, Tower 2
PETRONAS Twin Towers",,Kuala Lumpur City Center,Kuala Lumpur,50088,,,,3.14776,101.69402
"Menara Kuala Lumpur Sdn Bhd
Jalan Punchak
Off Jalan P. Ramlee
50250 Kuala Lumpur",,Menara Kuala Lumpur,"Jalan Punchak
Off Jalan P. Ramlee",,Kuala Lumpur,50250,,,,4.56461,101.06093
"MRCB Sentral Properties Sdn. Bhd.
Creative Innovation Centre
Suite 1B-G-1, Block 1B, Ground Floor
Plaza Sentral, Jalan Stesen Sentral 5
KL Sentral
50470 Kuala Lumpur",,"Creative Innovation Centre
Suite 1B-G-1, Block 1B, Ground Floor
Plaza Sentral",Jalan Stesen Sentral 5,KL Sentral,Kuala Lumpur,50470,,,,3.13533,101.68649
"Telekom Malaysia Berhad
Level 1, North Wing
Menara TM
Jalan Pantai Baharu
50672 Kuala Lumpur",,"Level 1, North Wing
Menara TM",Jalan Pantai Baharu,,Kuala Lumpur,50672,,,,3.15947,101.70171
"MVC Cybermanager Sdn Bhd
Level 3A-09
The Gardens South Tower
Mid Valley City
Lingkaran Syed Putra
59200 Kuala Lumpur",,"Level 3A-09
The Gardens South Tower",Lingkaran Syed Putra,Mid Valley City,Kuala Lumpur,56200,,,,3.1173,101.67523
"Cybercentre Management
UOA Development Bhd
UOA Corporate Tower
Lobby A, Avenue 10
The Vertical, Bangsar South City
No. 8, Jalan Kerinchi
59200 Kuala Lumpur",No. 8,"UOA Corporate Tower
Lobby A, Avenue 10",Jalan Kerinchi,"The Vertical, Bangsar South City",Kuala Lumpur,59200,,,,3.12794,101.67744
"GTower Cybercentre Management
GTower Sdn Bhd
Level 14, GTower
199, Jalan Tun Razak
50400 Kuala Lumpur",199,"Level 14, GTower",Jalan Tun Razak,,Kuala Lumpur,50400,,,,3.16169,101.71966
"The Intermark Sdn Bhd
Unit 20-05, Level 20
Integra Tower
The Intermark
348 Jalan Tun Razak
50400 Kuala Lumpur","Unit 20-05, 348","Level 20
Integra Tower
The Intermark",Jalan Tun Razak,,Kuala Lumpur,50400,,,,3.13654,101.68854
"Kumpulan Hamzah Kwong Hing Realty Sdn Bhd
Level 22
Wisma Hamzah Kwong Hing
No. 1, Leboh Ampang
50100 Kuala Lumpur",No. 1,Level 22 Wisma Hamzah Kwong Hing,Leboh Ampang,,Kuala Lumpur,50100,,,,3.14829,101.69654
"No. 21, Jalan PDR 6, Kawasan Perniagaan Desa Ria, Seri Kembangan, Selangor 43300, Malaysia",No. 21,,Jalan PDR 6,Kawasan Perniagaan Desa Ria,Seri Kembangan,43300,Selangor,,,3.023532,101.749069
"Central Holdings Berhad
Incubation and Business Centre
Level 1, Menara Worldwide
Lot 198, Jalan Bukit Bintang
55100 Kuala Lumpur",Lot 198,"Level 1, Menara Worldwide",Jalan Bukit Bintang,,Kuala Lumpur,55100,,,,3.14616,101.71032
"Khor Joo Saik Sdn Bhd
Level 6, Menara Binjai
No.2, Jalan Binjai
Off Jalan Ampang
50450 Kuala Lumpur",No.2,"Level 6, Menara Binjai",Jalan Binjai,Jalan Ampang,Kuala Lumpur,50450,,,,3.15279,101.69981
"Menara Maybank
100, Jalan Tun Perak
50050 Kuala Lumpur",100,Menara Maybank,Jalan Tun Perak,,Kuala Lumpur,50050,,,,3.14822,101.69779
"UOA Asset Management Sdn. Bhd.
UOA Corporate Tower
Lobby A, Avenue 10
The Vertical, Bangsar South City
No. 8, Jalan Kerinchi
59200 Kuala Lumpur",No. 8,"Lobby A, Avenue 10 The Vertical, Bangsar South City",Jalan Kerinchi,,Kuala Lumpur,59200,,,,3.12794,101.67744
"UIR Malaysia Office 1 Sdn. Bhd.
Level 25M, Cap Square Tower
10, Jalan Munshi Abdullah
50100 Kuala Lumpur",10,"Level 25M, Cap Square Tower",Jalan Munshi Abdullah,,Kuala Lumpur,50100,,,,3.15464,101.69842
"Sentul Raya Sdn. Bhd.
10th Floor, Yeoh Teong Lay Plaza
55, Jalan Bukit Bintang
55100 Kuala Lumpur",55,"10th Floor, Yeoh Teong Lay Plaza",Jalan Bukit Bintang,,Kuala Lumpur,55100,,,,3.14616,101.71032
"GSL Development Sdn. Bhd.
Unit 5-02, Level 5, Menara LGB
No. 1, Jalan Wan Kadir
Taman Tun Dr. Ismail
60000 Kuala Lumpur",No. 1,"Unit 5-02, Level 5, Menara LGB",Jalan Wan Kadir,Taman Tun Dr. Ismail,Kuala Lumpur,60000,,,,3.13705,101.63016
"Menara Hap Seng Sdn Bhd
Lot 11-05, Level 11, Menara Hap Seng 2
Letter Box No.2, Plaza Hap Seng
No. 1, Jalan P. Ramlee
50250 Kuala Lumpur",No. 1,"Lot 11-05, Level 11, Menara Hap Seng 2",Jalan P. Ramlee,"Letter Box No.2, Plaza Hap Seng",Kuala Lumpur,50250,,,,3.15357,101.70787
"KEN TTDI Sdn Bhd
Level 12, Menara KEN TTDI
No. 37, Jalan Burhanuddin Helmi
Taman Tun Dr. Ismail
60000 Kuala Lumpur",No. 37,"Level 12, Menara KEN TTDI",Jalan Burhanuddin Helmi,Taman Tun Dr. Ismail,Kuala Lumpur,60000,,,,3.14846,101.62012
"Desa Samudra Sdn Bhd
Suite 1.03, Level 1, Wisma E&C
No. 2, Lorong Dungun Kiri
Damansara Heights
50490 Kuala Lumpur",No. 2,"Suite 1.03, Level 1, Wisma E&C",Lorong Dungun Kiri,Damansara Heights,Kuala Lumpur,50490,,,,3.1501,101.65246
"DC Offices Sdn Bhd
Level 13, Wisma GuocoLand
Damansara City
No. 6, Jalan Damanlela, Bukit Damansara
50490 Kuala Lumpur",No. 6,"Level 13, Wisma GuocoLand Damansara City",Jalan Damanlela,Bukit Damansara,Kuala Lumpur,50490,,,,3.15175,101.6688
"No. 7, Jln Ss7/6b Kelana Jaya Petaling Jaya, Selangor 47301, Malaysia",No. 7,,Jln Ss7/6b,Kelana Jaya,Petaling Jaya,47301,Selangor,,,3.10944,101.64771
"B-5-8, Plaza Mont Kiara, Mont Kiara Kuala Lumpur, Wilayah Persekutuan 50480, Malaysia",B-5-8,Plaza Mont Kiara,,Mont Kiara,Kuala Lumpur,50480,Wilayah Persekutuan,,,3.16555,101.65227
"3.23, 2nd Floor, Wisma Central Jalan Ampang Kuala Lumpur, Wilayah Persekutuan 50450, Malaysia",3.23,"2nd Floor, Wisma Central ",Jalan Ampang,,Kuala Lumpur,50450,Wilayah Persekutuan,,,3.15279,101.69981
"179, Jalan Bukit Bintang Unit D2, 3rd Floor, Fahrenheit88 Bukit Bintang, Wilayah Persekutuan 55100, Malaysia","Unit D2, 3rd Floor,179",,Jalan Bukit Bintang,Fahrenheit88,Bukit Bintang,55100,Wilayah Persekutuan,3.147432,101.712396,3.14546,101.71501
"1-21-01, Suntech @ Penang Cybercity Lintang Mayang Pasir 3 Bayan Baru, Pulau Pinang 11950, Malaysia",1-21-01,Suntech @ Penang Cybercity,,Lintang Mayang Pasir 3,Bayan Baru,11950,Pulau Pinang,,,5.31677,100.28277
"No. 733, Jln Tampoi Batu 3, 1/2 Johor Bahru, Johor 81200, Malaysia",No. 733,, Jln Tampoi Batu 3 1/2 ,,Johor Bahru,81200,Johor,,,1.50129,103.71161
"No. 17, Jln Tpp 1/19 Taman Industri Puchong Puchong, Selangor 47100, Malaysia",No. 17,,Jln Tpp 1/19,Taman Industri Puchong,Puchong,47100,Selangor,,,3.02905,101.6126
"K69, Kaw Perindustrian Tanjung Agas Muar, Johor 84000, Malaysia",K69,Kaw Perindustrian,,Tanjung Agas,Muar,84000,Johor,,,2.05802,102.56509
"No. 797, Jln Bagan Ajam Taman Kekaya Butterworth, Pulau Pinang 13000, Malaysia",No. 797,,Jln Bagan Ajam,Taman Kekaya,Butterworth,13000,Pulau Pinang,,,2.50595,102.25714
"PLOT 12, Kaw Perindustrian Bkt Minyak Bukit Tengah, Pulau Pinang 14100, Malaysia",PLOT 12,Kaw Perindustrian,,Bkt Minyak Bukit Tengah,,14100,Pulau Pinang,,,5.29612,100.45173
"Lrg Datuk Abang Abdul Rahim 10 Kuching, Sarawak , Malaysia",10,,Lrg Datuk Abang Abdul Rahim,,Kuching,,Sarawak,,,1.52289,110.34611
"Block 33, Georgetown, Pulau Pinang , Malaysia",Block 33,,,,Georgetown,,Pulau Pinang,,,5.41762,100.34423
"G Tower, Level 16-10. 199 Jalan Tun Razak, 50400, Malaysia",Level 16-10. 199,G Tower,Jalan Tun Razak,,,50400,,,,3.16165,101.7197
"Blok Merbau, Jln Rimba Tmn Desaminium Lestari Perda Seri Kembangan, Selangor 43300, Malaysia",Blok Merbau,,Jln Rimba ,Tmn Desaminium Lestari Perda,Seri Kembangan,43300,Selangor,,,3.016844,101.719231
"No. 31, Jalan 6/2, Taman Industri Selesa Jaya, Balakong, Seri Kembangan, Selangor 43300, Malaysia",No. 31,,Jalan 6/2,"Taman Industri Selesa Jaya , Balakong",Seri Kembangan,43300,Selangor,,,3.011387,101.751433
"22-3, Plaza Danau 2, Jln 5/109f Danau Desa Kuala Lumpur, Wilayah Persekutuan 58100, Malaysia",22-3,Plaza Danau 2,Jln 5/109f Danau Desa,,Kuala Lumpur,58100,Wilayah Persekutuan,,,3.09963,101.68705
"35 Lorong Sungai Puloh 1A//KU6, Ladang Sungai Puloh, Klang, Selangor 41050, Malaysia",35,,Lorong Sungai Puloh 1A//KU6,Ladang Sungai Puloh,Klang,41050,Selangor,,,3.08105,101.41542
"No. 14, Jln Tpp 5/12 Taman Industri Puchong Puchong, Selangor 47100, Malaysia",No. 14,,Jln Tpp 5/12,Taman Industri Puchong,Puchong,47100,Selangor,,,3.02853,101.60153
"No. 117, Jln Jelapang Maju 3 Perindustrian Jelapang Maju Ipoh, Perak 30020, Malaysia",No. 117,,Jln Jelapang Maju 3,Perindustrian Jelapang Maju,Ipoh,30020,Perak,,,4.6313,101.04952
"No. 21, Lrg Nagasari 25 Perai, Pulau Pinang 13700, Malaysia",No. 21,,Lrg Nagasari 25,,Perai,13700,Pulau Pinang,,,5.38529,100.37964
"Kota Kemuning Shah Alam, Selangor , Malaysia",,Kota Kemuning,,,Shah Alam,,Selangor,,,3.07621,101.53619
"A107, Perdana Exclusive, PJU8/1 Damansara Perdana Petaling Jaya Damansara, Selangor 47820, Malaysia",A107,Perdana Exclusive, PJU8/1,Damansara Perdana,Petaling Jaya,47820,Selangor,,,3.17166,101.61717
"1-5-11, Hlm Paya Terubong 2 Bayan Lepas, Pulau Pinang 11900, Malaysia",1-5-11,,Hlm Paya Terubong 2,,Bayan Lepas,11900,Pulau Pinang,,,5.29473,100.25799
"No. 13, Jln 25/31 Section 25 Shah Alam, Selangor 40400, Malaysia",No. 13,,Jln 25/31,Section 25,Shah Alam,40400,Selangor,,,3.079831,101.765781
"27, Jalan Harmonium 23/12, Taman Desa Tebrau, Johor Bahru, Johor 81100, Malaysia",27,,Jalan Harmonium 23/12,Taman Desa Tebrau,Johor Bahru,81100,Johor,,,1.55547,103.79729
"Persiaran raja muda musa klang Klang, Selangor 41100, Malaysia",,Persiaran raja muda,,Musa klang,Klang,41100,Selangor,,,3.02914,101.42916
"No. 34, Jln Jelutong Taman Sri Plentong Masai, Johor 81750, Malaysia",No. 34,,Jln Jelutong,Taman Sri Plentong,Masai,81750,Johor,,,1.52884,103.82172
"30th Floor, The Gardens North Tower, Mid Valley City Kuala Lumpur, Wilayah Persekutuan 59200, Malaysia",,"30th Floor,The Gardens North Tower",,Mid Valley City,Kuala Lumpur,59200,Wilayah Persekutuan,,,3.11995,101.6775
"No. 57, 1st Floor, Jln Pju 1a/41b Pusat Dagangan Nzx Ara Jaya Petaling Jaya, Selangor 47301, Malaysia
",No. 57,1st Floor,Jln Pju 1a/41b,Pusat Dagangan Nzx Ara Jaya,Petaling Jaya,47301,Selangor,,,3.11385,101.59076
"Cheras, Selangor 56000, Malaysia",,,,,Cheras,56000,Selangor,,,6.15588,100.37052
"12A, Jln Puchong Ampang, Selangor 47180, Malaysia",12A,,Jln Puchong,,Ampang,47180,Selangor,,,3.23608,101.72101
"76-1-1, Jln Medan Putra 3/62d Mdn Putra Business Centre Kuala Lumpur, Wilayah Persekutuan 52200, Malaysia",76-1-1,,Jln Medan Putra 3/62d,Mdn Putra Business Centre,Kuala Lumpur,52200,Wilayah Persekutuan,,,3.19378,101.62506
"No. 18, Jln Indah 20 Taman Indah Jaya Kuala Langat, Selangor 42500, Malaysia",No. 18,,Jln Indah 20,Taman Indah Jaya,Kuala Langat,42500,Selangor,,,3.067458,101.78342
"No. 28, Jln Serindit Larkin Jaya Johor Bahru, Johor 80350, Malaysia",No. 28,,Jln Serindit Larkin Jaya,,Johor Bahru,80350,Johor,,,1.50108,103.74884
"No. 65, Psr Selangor Seksyen 15 Shah Alam, Selangor 40000, Malaysia",No. 65,Psr Selangor,,Seksyen 15,Shah Alam,40000,Selangor,,,3.06412,101.52742
"No. 37, Jln Sg 1/23 Taman Sri Gombak Batu Caves, Selangor 68100, Malaysia",No. 37,,Jln Sg 1/23,Taman Sri Gombak,Batu Caves,68100,Selangor,,,3.22686,101.7028
"No. 24, Psn 118C Desa Tun Razak Kuala Lumpur, Wilayah Persekutuan 56000, Malaysia",No. 24,,Psn 118C,Desa Tun Razak,Kuala Lumpur,56000,Wilayah Persekutuan,,,3.16181,101.71962
"73 , 73-1 & 73-2 ,JALAN DAMAI NIAGA 1 ALAM DAMAI Cheras, Wilayah Persekutuan 56000, Malaysia","73 , 73-1 & 73-2",,JALAN DAMAI NIAGA 1,ALAM DAMAI,Cheras,56000,Wilayah Persekutuan,,,3.05999,101.74302
"NO 18, JALAN KURNIA 8, TAMAN KURNIA Kluang, Johor 86000, Malaysia",NO 18,,JALAN KURNIA 8,TAMAN KURNIA,Kluang,86000,Johor,,,1.86862,102.93538
"No. 84, Jln Putra Kuala Lumpur, Wilayah Persekutuan 50350, Malaysia","No. 84,",,Jln Putra,,Kuala Lumpur,50350,Wilayah Persekutuan,,,4.68434,101.10746
"63 Jalana PBS 14/9, Kawasan Perindustrian Bukit Serdang, Seri Kembangan, Selangor 43300, Malaysia",63,,Jalana PBS 14/9,,Seri Kembangan,43300,Selangor,,,3.029739,101.715931
"25-1, Jln 2a/27a Setapak Kuala Lumpur, Wilayah Persekutuan 53300, Malaysia",25-1,,Jln 2a/27a,,Setapak,53300,Wilayah Persekutuan,,,3.2024,101.73087
"K9612, GF, Taman Cukai Utama 24000, Malaysia",K9612,GF,,Taman Cukai Utama,,24000,,,,6.15525,100.37191
"19344-2, Batu 18 Kg Setia Kuang Kuang, Selangor 48050, Malaysia",19344-2,,,Batu 18 Kg Setia Kuang,Kuang,48050,Selangor,,,3.163591,101.846863
"2, Jalan Pulai Perdana 11/3 Taman Pulai Perdana Skudai, Johor 81110, Malaysia",2,,Jalan Pulai Perdana 11/3,Taman Pulai Perdana,Skudai,81110,Johor,,,1.56267,103.61394
"No. 91, Jln TU41 Taman Tasik Utama Ayer Keroh, Melaka 75450, Malaysia",No. 91,, Jln TU41 ,Taman Tasik Utama ,Ayer Keroh,75450,Melaka,,,2.2566,102.29104
"No. 22, Jln 4/12a Seksyen 4 Bandar Baru Bangi, Selangor 43650, Malaysia",No. 22,,Jln 4/12a ,Seksyen 4 ,Bandar Baru Bangi,43650,Selangor,,,2.9644,101.77932
"U0252, BA, Jln Kemajuan Labuan, Sabah 87000, Malaysia",U025,BA,Jln Kemajuan ,,Labuan,87000,Sabah,,,6.15588,100.37052
"GF, Jln Seang Teik Georgetown, Pulau Pinang 10400, Malaysia",,GF,Jln Seang Teik,,Georgetown,10400,Pulau Pinang,,,5.41302,100.32384
"No. 11, Jln Desa Serdang 11 Taman Desa Serdang Seri Kembangan, Selangor 43300, Malaysia",No. 11,,Jln Desa Serdang 11,Taman Desa Serdang,Seri Kembangan,43300,Selangor,3.011811,101.725927,3.011924,101.726417
"No. 23, Jln Kencana 18 Taman Kencana Kuala Lumpur, Wilayah Persekutuan 56100, Malaysia",No. 23,,Jln Kencana 18,Taman Kencana,Kuala Lumpur,56100,Wilayah Persekutuan,,,3.12061,101.74894
"17-2, Jln Damai Perdana 1/8B Damai Perdana Kuala Lumpur, Wilayah Persekutuan 56000, Malaysia",17-2,,Jln Damai Perdana 1/8B,Damai Perdana,Kuala Lumpur,56000,Wilayah Persekutuan,,,3.05141,101.74269
"21B, Jalan Bunga Tanjung 8B Taman Muda Cheras, Wilayah Persekutuan 56100, Malaysia",21B,,Jalan Bunga Tanjung 8B ,Taman Muda,Cheras,56100,Wilayah Persekutuan,,,3.11942,101.76284
"No. 39, 1st Floor, Jln 4/62d Medan Putra Business Centre Kuala Lumpur, Wilayah Persekutuan 52200, Malaysia",No. 39,1st Floor,Jln 4/62d,Medan Putra Business Centre,Kuala Lumpur,52200,Wilayah Persekutuan,,,3.19378,101.62506
"No. 137, Lrg Perdana 1/5 Bandar Perdana Sungai Petani, Kedah 08000, Malaysia",No. 137,,Lrg Perdana 1/5,Bandar Perdana,Sungai Petani,8000,Kedah,,,5.69418,100.5404
"A6-1, Ground Floor, Blok A Yoshi Square, Jln Pelab Kuching, Sarawak 93450, Malaysia",A6-1,"Ground Floor, Blok A Yoshi Square",Jln Pelab,,Kuching,93450,Sarawak,,,3.046475,101.804657
"48-1, 1st Floor, Jln Sulaiman 1 Taman Putra Sulaiman Ampang, Selangor 68000, Malaysia",48-1,1st Floor,Jln Sulaiman 1,Taman Putra Sulaiman,Ampang,68000,Selangor,,,3.14529,101.76243
"No. 18, Jln Zirkon E7/E Seksyen 7 Shah Alam, Selangor 40000, Malaysia",No. 18,,Jln Zirkon E7/E,Seksyen 7,Shah Alam,40000,Selangor,,,3.07698,101.4973
"No. 279, Usj 3/4B Subang Jaya, Selangor 47600, Malaysia",No. 279,,,Usj 3/4B,Subang Jaya,47600,Selangor,,,3.05312,101.57318
"No. 11, Jln Molek 2/37 Taman Molek Johor Bahru, Johor 81100, Malaysia",No. 11,,Jln Molek 2/37,Taman Molek,Johor Bahru,81100,Johor,,,1.52181,103.79174
"No. 14, Jln Setia 12/20 Taman Setia Indah Johor Bahru, Johor 81100, Malaysia",No. 14,,Jln Setia 12/20 ,Taman Setia Indah ,Johor Bahru,81100,Johor,,,1.57084,103.77475
"9G & 9-1, 1st Floor, Jln Lj 4 Taman Industri Lembah Jaya Ampang, Selangor 68000, Malaysia",9G & 9-1,1st Floor,Jln Lj 4,Taman Industri Lembah Jaya,Ampang,68000,Selangor,,,3.028512,101.761933
"No. 24, Jln Dagang 10 Taman Dagang Jaya Ampang, Selangor 68000, Malaysia",No. 24,Block G,Jln Dagang 10,Taman Dagang Jaya,Ampang,68000,Selangor,,,3.13612,101.77631
"J-2-2, jalan 1/127 Pusat Perdagangan Kuchai Kuchai Lama, Wilayah Persekutuan 58200, Malaysia",J-2-2,,jalan 1/127,Pusat Perdagangan Kuchai,Kuchai Lama,58200,Wilayah Persekutuan,,,3.09053,101.68841
"No. 11, 1st Floor, Jalan 11/34A, Kepong Entrepreneurs Park, Kuala Lumpur, Wilayah Persekutuan 52100, Malaysia",No. 11,1st Floor,Jalan 11/34A,Kepong Entrepreneurs Park,Kuala Lumpur,52100,Wilayah Persekutuan,,,3.22003,101.65059
"30-2-1, Lrg Batu Nilam 4A Klang, Selangor 41200, Malaysia",30-2-1,,Lrg Batu Nilam 4A,,Klang,41200,Selangor,,,3.00451,101.43591
"No. 6, Jln Tpp 1/14 Taman Industri Puchong Puchong, Selangor 47100, Malaysia",No. 6,,Jln Tpp 1/14,Taman Industri Puchong,Puchong,47100,Selangor,,,3.29494,101.55856
"No. 26, Jln Ss22/2 Damansara Jaya Petaling Jaya, Selangor 47400, Malaysia",No. 26,,Jln Ss22/2,Damansara Jaya,Petaling Jaya,47400,Selangor,,,3.081228,101.764177
"No. 18, Jln H3 Taman Melawati Hulu Klang, Selangor 53100, Malaysia",No. 18,,Jln H3,Taman Melawati,Hulu Klang,53100,Selangor,,,3.22759,101.74506
"26A, Jln Sm 11, Taman Sri Manja, Petaling Jaya, Selangor 46000, Malaysia",26A,,Jln Sm 11,Taman Sri Manja,Petaling Jaya,46000,Selangor,,,3.07352,101.6484
"No. 9, Jln Tpk 2/7 Taman Perindustrian Kinrara Puchong, Selangor 58200, Malaysia",No. 9,,Jln Tpk 2/7,Taman Perindustrian Kinrara,Puchong,58200,Selangor,,,3.029,101.61349
"No. 288, Jln Pasir Puteh Ipoh, Perak 31650, Malaysia",No. 288,,Jln Pasir Puteh,,Ipoh,31650,Perak,,,1.65268,103.59229
"6, Jalan Tembaga Sd 5/2C, Bandar Sri Damansara, Freephone - Selangor, Selangor 52100, Malaysia",6,,Jalan Tembaga Sd 5/2C,"Bandar Sri Damansara, Freephone",Selangor,52100,Selangor,,,3.20096,101.61703
"6, Jalan Tembaga Sd 5/2c, Bandar Sri Damansara, Kepong, Wilayah Persekutuan 52200, Malaysia",6,,Jalan Tembaga Sd 5/2c,Bandar Sri Damansara,Kepong,52200,Wilayah Persekutuan,,,3.20096,101.61703
"No. 6, Jln Jln Tembaga Sd 5/2C Taman Sri Damansara Freephone - Selangor, Selangor 52100, Malaysia",No. 6,,Jln Jln Tembaga Sd 5/2C,Taman Sri Damansara Freephone,Selangor,52100,Selangor,,,3.20096,101.61703
"15-1, Jln Prima Setapak 5 Prima Setapak Kuala Lumpur, Wilayah Persekutuan 53300, Malaysia",15-1,,Jln Prima Setapak 5,Prima Setapak,Kuala Lumpur,53300,Wilayah Persekutuan,,,3.17857,101.64802
"61-3, Jln Thambapillai Kuala Lumpur, Wilayah Persekutuan 50470, Malaysia",61-3,,Jln Thambapillai,,Kuala Lumpur,50470,Wilayah Persekutuan,,,3.30722,101.58764
"No. 6, Jln Pjs 7/21 Taman Bandar Sunway Petaling Jaya, Selangor 46150, Malaysia",No. 6,,Jln Pjs 7/21,Taman Bandar Sunway,Petaling Jaya,46150,Selangor,,,3.07952,101.63364
"LEVEL 12B MENARA OLYMPIA , 8 JALAN RAJU CHULAN Kuala Lumpur, Wilayah Persekutuan 50200, Malaysia",,LEVEL 12B MENARA OLYMPIA,8 JALAN RAJU CHULAN,,Kuala Lumpur,50200,Wilayah Persekutuan,,,3.12108,101.71165
"No. 50, Jln Pengasah 3 Klang, Selangor 41400, Malaysia",No. 50,,Jln Pengasah 3,,Klang,41400,Selangor,,,3.0711,101.41357
"2A-6-10, Kondominium Bdr Baru Klang, Psn Bukit Raj Bandar Baru Klang Klang, Selangor 41150, Malaysia",2A-6-10,Kondominium Bdr Baru Klang,Psn Bukit Raj,Bandar Baru Klang,Klang,41150,Selangor,,,3.06257,101.46816
"NO. 12A-2, Jln Pju 3/38a, Sunway Damansara, Petaling Jaya, Selangor 47810, Malaysia",NO. 12A-2,,Jln Pju 3/38a,Sunway Damansara,Petaling Jaya,47810,Selangor,,,3.14535,101.5764
"No. 147, Gerbang Bukit Kecil 2, Sungai Nibong, Bayan Lepas, Pulau Pinang 11900, Malaysia",No. 147,Gerbang Bukit Kecil 2,,Sungai Nibong,Bayan Lepas,11900,Pulau Pinang,,,5.33203,100.29743
"no-92,persiaran raja muda musa,selangor,klang Klang, Selangor 41100, Malaysia",no-92,persiaran raja muda musa,,,klang,41100,Selangor,,,3.02906,101.429
"No. 61, Jln 1/154 Taman Bukit Anggerik Kuala Lumpur, Wilayah Persekutuan 56000, Malaysia",No. 61,,Jln 1/154,Taman Bukit Anggerik,Kuala Lumpur,56000,Wilayah Persekutuan,,,3.06573,101.74742
"No. 76, Jln Raja Musa Aziz Ipoh, Perak 30300, Malaysia",No. 76,,Jln Raja Musa Aziz,,Ipoh,30300,Perak,,,4.59905,101.08507
"No. 16, Jln Maju 6 Taman Kajang Utama Kajang, Selangor 43000, Malaysia",No. 16,,Jln Maju 6,Taman Kajang Utama,Kajang,43000,Selangor,,,2.996397,101.747995
"34A,LORONG RAHIM KAJAI 14 TAMAN TUN DR ISMAIL Taman Tun Dr Ismail, Wilayah Persekutuan 60000, Malaysia",34A,,LORONG RAHIM KAJAI 14,TAMAN TUN DR ISMAIL Taman Tun Dr Ismail,,60000,Wilayah Persekutuan,,,3.1555,101.62232
"10B, Jalan Halaman 2, Taman Halaman, Ampang, Selangor 68000, Malaysia",10B,,Jalan Halaman 2,Taman Halaman,Ampang,68000,Selangor ,,,3.20035,101.78019
"No. 11, Jln Intan 2/4 Taman Intan Kluang, Johor 86000, Malaysia",No. 11,,Jln Intan 2/4,Taman Intan,Kluang,86000,Johor,,,2.01811,103.30326
"6-2-1, 2nd Floor, Blok 6 Medow Park, Jln 1/130 Off Kuala Lumpur, Wilayah Persekutuan 58200, Malaysia",6-2-2001,"2nd Floor, Blok 6 Medow Park",Jln 1/130 Off,,Kuala Lumpur,58200,Wilayah Persekutuan,,,3.08283,101.67851
"no.30-g, jalan desa putera, 43/ks 08, pusat perniagaan desa putera, jalan kebun Klang Klang, Selangor 41100, Malaysia",no.30-g,,jalan desa putera,"pusat perniagaan desa putera, jalan kebun Klang",Klang,41100,Selangor,,,2.97455,101.50406
"No. 127, 4th Floor, Jln Ss25/2 SS25 Petaling Jaya, Selangor 47301, Malaysia",No. 127,4th Floor,Jln Ss25/2 SS25,,Petaling Jaya,47301,Selangor ,,,3.116477,101.823154
"No.2 Jalan KPKS 1 Kompleks Perniagaan Kota Syahbandar Melaka 75200, Malaysia",No.2,,Jalan KPKS 1,Kompleks Perniagaan,Kota Syahbandar,75200,Melaka,,,6.15588,100.37052
"15th Floor, Blok A Damansara Intan, Jln Ss20/27 SS20 Petaling Jaya, Selangor 47400, Malaysia",,"15th Floor, Blok A Damansara Intan",Jln Ss20/27 SS20,,Petaling Jaya,47400,Selangor,,,3.13181,101.61675
"No. 60, 1st Floor, Jln 1/2 Bukit Rahman Putra Sungai Buloh, Selangor 47000, Malaysia",No. 60,1st Floor,Jln 1/2,Bukit Rahman Putra,Sungai Buloh,47000,Selangor,,,3.22657,101.55736
"No. 303, Blok C Dataran Usahawan Kelana, Jln Ss 7/ SS7 Petaling Jaya, Selangor 47301, Malaysia",No. 303,Blok C Dataran Usahawan Kelana,Jln Ss 7/ SS7,,Petaling Jaya,47301,Selangor,,,2.04605,102.64475
"6th Floor, Kota Bharu Trade Centre, Jln Buluh Kubu Kota Bharu, Kelantan 15000, Malaysia",,"6th Floor, Kota Bharu Trade Centre",Jln Buluh Kubu,,Kota Bharu,15000,Kelantan,,,1.73614,103.90648
"1st Floor, Jln Usj 10/1b Usj Subang Jaya, Selangor 47620, Malaysia",,1st Floor,Jln Usj 10/1b,Usj,Subang Jaya,47620,Selangor,,,3.04744,101.58632
"24A, 1st Floor, Jln 4/23b Danau Kota Kuala Lumpur, Wilayah Persekutuan 53300, Malaysia",24A,1st Floor,Jln 4/23b,Danau Kota,Kuala Lumpur,53300,Wilayah Persekutuan,,,3.20851,101.71783
"5-2, Jln Pju 8/3B Bandar Damansara Perdana Petaling Jaya, Selangor 47820, Malaysia",5-2,,Jln Pju 8/3B,Bandar Damansara Perdana,Petaling Jaya,47820,Selangor,,,3.12016,101.60016
"9, Jalan Indah 4 Taman Ampang Indah Ampang, Selangor 68000, Malaysia",9,,Jalan Indah 4 ,Taman Ampang Indah ,Ampang,68000,Malaysia,,,3.14762,101.77833
"K-2A-1, Jaya 1, Jln Universiti Seksyen 13 Petaling Jaya, Selangor 46200, Malaysia",K-2A-1,Jaya 1,Jln Universiti,Seksyen 13,Petaling Jaya,46200,Selangor,,,3.08137,101.64668
"No. 490, Jln 21 Kampung Baru Salak Selatan Kuala Lumpur, Wilayah Persekutuan 57100, Malaysia",No. 490,,Jln 21,Kampung Baru Salak Selatan,Kuala Lumpur,57100,Wilayah Persekutuan,,,3.08832,101.70801
"No. 33, Jln Lep 5/12 Bandar Putra Permai Seri Kembangan, Selangor 43300, Malaysia",No. 33,,Jln Lep 5/12,Bandar Putra Permai,Seri Kembangan,43300,Selangor,,,2.99972,101.65539
"No 16, Jalan LP 3/6, Taman Lestari Perdana Taman Lestari Perdana Seri Kembangan, Selangor 43300, Malaysia",No 16,,Jalan LP 3/6,Taman Lestari Perdana ,Seri Kembangan,43300,Selangor,,,3.11671,101.823932
,,,,,,,,,,,
"No. 15, Jln Pbs 14/10 Kaw Perindustrian Bkt Serdang Seri Kembangan, Selangor 43300, Malaysia",No. 15,,Jln Pbs 14/10,Kaw Perindustrian Bkt Serdang,Seri Kembangan,43300,Selangor,,,3.029739,101.715931
"7, Jalan 110, Kepong Baru 52100 Kuala Lumpur kepong, Wilayah Persekutuan 52100, Malaysia",7,,Jalan 110,Kepong Baru,Kuala Lumpur,52100,Wilayah Persekutuan ,,,3.21072,101.63454
"No. 116, Jln Berhala Kuala Lumpur, Wilayah Persekutuan 50470, Malaysia",No. 116,,Jln Berhala,,Kuala Lumpur,50470,Wilayah Persekutuan,,,3.07712,101.70865
"Lot.1.01.01 & 1.01.02, Level 1, Pavilion Kuala Lumpur, Kuala Lumpur, Wilayah Persekutuan 55100, Malaysia",Lot.1.01.01 & 1.01.02,"Level 1, Pavilion Kuala Lumpur",,,Kuala Lumpur,55100,Wilayah Persekutuan,,,3.13298,101.68296
"Jln Maju Kota Tinggi, Johor 81900, Malaysia",,,Jln Maju Kota Tinggi,,,81900,Johor ,,,1.73484,103.90002
"No. 1, Jalan B U9/B, Sunway Kayangan Seksyen 9, Shah Alam, Selangor 40150, Malaysia",No. 1,,Jalan B U9/B,Sunway Kayangan Seksyen 9,Shah Alam,40150,Selangor,,,3.13004,101.51422
"35, Jalan 10/152, Taman Perindustrian Oug, Kuala Lumpur, Wilayah Persekutuan 58200, Malaysia",35,,Jalan 10/152,Taman Perindustrian Oug,Kuala Lumpur,58200,Wilayah Persekutuan ,,,3.06739,101.65996
"L1, Blok G Pangsapuri Bbk, Bandar Baru Kundang Kuang, Selangor 48050, Malaysia",L1,Blok G Pangsapuri Bbk,,Bandar Baru Kundang ,Kuang,48050,Selangor,,,3.28439,101.51358
"192, Tingkat G, Ampang Park Shopping Complex, Jala Kuala Lumpur, Wilayah Persekutuan 50450, Malaysia",192,"Tingkat G, Ampang Park Shopping Complex",Jala Kuala Lumpur,,,50450,Wilayah Persekutuan ,,,3.16058,101.72193
"44, Tingkat G, Persiaran Ampang, Kuala Lumpur, Wilayah Persekutuan 55000, Malaysia",44,"Tingkat G, Persiaran Ampang",,,Kuala Lumpur,55000,Wilayah Persekutuan,,,3.15062,101.74296
"No. 30, Ground Floor, Jln 3/23f, Teratai Mewah, Kuala Lumpur, Wilayah Persekutuan 53000, Malaysia",No. 30,Ground Floor,Jln 3/23f,Teratai Mewah,Kuala Lumpur,53000,Wilayah Persekutuan,,,3.20019,101.70939
"2A, Ltg Angsana Air Itam, Pulau Pinang 11500, Malaysia",2A,,,Ltg Angsana,Air Itam,11500,Pulau Pinang,,,5.40896,100.28654
"20-1, Tingkat 1, Jalan Sulaiman 1, Taman Putra Sulaiman, Ampang, Selangor 68000, Malaysia",20-1,Tingkat 1,Jalan Sulaiman 1,Taman Putra Sulaiman,Ampang,68000,Selangor,,,3.079227,101.766977
,,,,,,,,,,,
"Bandar Baru Selayang
68100 Batu Caves
Selangor Darul Ehsan",,,,Bandar Baru Selayang,Batu Caves,68100,Selangor ,,,3.24695,101.67157
"Jalan Templer
46050 Petaling Jaya
Selangor Darul Ehsan",,,Jalan Templer ,, Petaling Jaya ,46050,Selangor,,,3.08872,101.65354
"Jalan Kota, 41000 Klang
Selangor Darul Ehsan",,,Jalan Kot,,Klang ,41000,Selangor,,,2.2727,102.52641
"Jalan Semenyih, 43000 Kajang
Selangor Darul Ehsan",,,Jalan Semenyih,,Kajang ,43000,Selangor,,,2.98806,101.80141
"Telok Datok, 42700 Banting
Selangor Darul Ehsan",,,,Telok Datok,Banting ,42700,Selangor,,,3.021782,101.754974
"Jalan Syed Mashor ,
44000 Kuala Kubu Bharu, Selangor",,,Jalan Syed Mashor,, Kuala Kubu Bharu,44000,Selangor,,,4.58473,101.08595
"Jalan Kelang, Jalan Bukit Kemajuan, 45000 Kuala Selangor
Selangor Darul Ehsan",,,Jalan Kelang,Jalan Bukit Kemajuan, Kuala Selangor ,45000,Selangor,,,3.20939,101.62365
"Jalan Besar, 45300 Sungai Besar, Sabak Bernam, Selangor Darul Ehsan",,,Jalan Besar,Sungai Besar,Sabak Bernam,45300,Selangor,,,3.76708,100.99045
"No. 29, Jalan 6
Kosmopleks, Bandar Baru Salak Tinggi
43900 Sepang,
Selangor Darul Ehsan",No. 29,,Jalan 6 Kosmoplek,Bandar Baru Salak Tinggi ,Sepang,43900,Selangor,,,2.81307/101.74002,
"Kampung Kenangan Indah, Jalan Balakong Seri Kembangan, Selangor 43100, Malaysia",,Kampung Kenangan Indah,Jalan Balakong,,Seri Kembangan,43100,Selangor,,,,
"No. 8970, Jln Udang Galah Kampung Telok Gong Telok Gong, Selangor 42000, Malaysia",No. 8970,,Jln Udang Galah,Kampung Telok Gong,Telok Gong,42000,Selangor,,,,
"No. 771, Jln Nilai 3/4 Kawasan Perindustrian Nilai 3 Nilai, Negeri Sembilan 71800, Malaysia",No. 771,,Jln Nilai 3/4,Kawasan Perindustrian Nilai 3,Nilai,71800,Negeri Sembilan ,,,,
"No. 50, 2nd Floor, Jln Silang Kuala Lumpur, Wilayah Persekutuan 50050, Malaysia",No. 50,2nd Floor,Jln Silang,,Kuala Lumpur,50050,Wilayah Persekutuan,,,,
"2-8-2- Block A Bander Putera Jalan Kebun Klang Klang, Selangor 41200, Malaysia",2-8-2002,Block A Bander Putera,Jalan Kebun Klang,,Klang,41200,Selangor,,,,
"1 Jln Kemajuan Karamunsing, Sabah 88000, Malaysia",1,,Jln Kemajuan,,Karamunsing,88000,Sabah,,,,
"Taman Bandar Baru Kampar Kampar, Perak , Malaysia",,,,Taman Bandar Baru Kampar,Kampar,,Perak,,,,
"PLOTP131, Jln Perindustrian Bukit Minyak Kaw Perindustrian Bkt Minyak Bukit Tengah, Pulau Pinang 14100, Malaysia",PLOTP131,,Jln Perindustrian,Bukit Minyak Kaw Perindustrian Bkt Minyak,Bukit Tengah,14100,Pulau Pinang,,,,
"PLOT 131 A, JALAN PERINDUSTRIAN BUKIT MINYAK SEBERANG PERAI TANGAH Bukit Mertajam, Pulau Pinang 14100, Malaysia",PLOT 131 A,,JALAN PERINDUSTRIAN,BUKIT MINYAK SEBERANG PERAI TANGAH,Bukit Mertajam,14100,Pulau Pinang,,,,
"PLOT 131, Flextronics, Lorong Perindustrian Bukit Simpang Ampat, Pulau Pinang 14100, Malaysia",PLOT 131,Flextronics,Lorong Perindustrian,Bukit Simpang Ampat,Simpang Ampat,14100,Pulau Pinang,,,,
"PLOT 23, Tingkat G, Flextronics Technology, Lebuhr Bayan Lepas, Pulau Pinang 11900, Malaysia",PLOT 23," Tingkat G, Flextronics Technology",,Lebuhr Bayan Lepas,Bayan Lepas,11900,Pulau Pinang,,,,
"PLOT 23, Lebuhraya Kampung Jawa, Bayan Lepas, Pulau Pinang 11900, Malaysia",PLOT 23,,,Lebuhraya Kampung Jawa,,11900,Pulau Pinang,,,,
"5-5A, Jln Kebun Nenas 1n/ks7 Bandar Putera Klang, Selangor 41000, Malaysia",5-5A,,Jln Kebun Nenas 1n/ks7,Bandar Putera,Klang,41000,Selangor,,,,